{
  "type": "FeatureCollection",
  "features": [
    {
      "type": "Feature",
      "geometry": { "type": "Point", "coordinates": [-73.6266, 4.1420] },
      "properties": {
        "municipio": "Villavicencio",
        "poblacion_demo": 552010,
        "mujeres_porcentaje": 51.4,
        "hombres_porcentaje": 48.6,
        "urbana_porcentaje": 94.2,
        "rural_porcentaje": 5.8
      }
    },
    {
      "type": "Feature",
      "geometry": { "type": "Point", "coordinates": [-73.7590, 3.9860] },
      "properties": {
        "municipio": "Acacías",
        "poblacion_demo": 91829,
        "mujeres_porcentaje": 50.7,
        "hombres_porcentaje": 49.3,
        "urbana_porcentaje": 78.1,
        "rural_porcentaje": 21.9
      }
    },
    {
      "type": "Feature",
      "geometry": { "type": "Point", "coordinates": [-73.7069, 3.5463] },
      "properties": {
        "municipio": "Granada",
        "poblacion_demo": 71439,
        "mujeres_porcentaje": 50.9,
        "hombres_porcentaje": 49.1,
        "urbana_porcentaje": 82.5,
        "rural_porcentaje": 17.5
      }
    },
    {
      "type": "Feature",
      "geometry": { "type": "Point", "coordinates": [-72.9559, 4.0910] },
      "properties": {
        "municipio": "Puerto López",
        "poblacion_demo": 35097,
        "mujeres_porcentaje": 49.8,
        "hombres_porcentaje": 50.2,
        "urbana_porcentaje": 69.3,
        "rural_porcentaje": 30.7
      }
    }
  ]
}
